NORAD_CAT_ID,OBJECT_NAME,OBJECT_TYPE,EPOCH,MEAN_MOTION,ECCENTRICITY,INCLINATION,RA_OF_ASC_NODE,ARG_OF_PERICENTER,MEAN_ANOMALY,BSTAR,MEAN_MOTION_DOT,MEAN_MOTION_DDOT,TLE_LINE0,TLE_LINE1,TLE_LINE2,SEMIMAJOR_AXIS,PERIOD,APOGEE,PERIGEE,DECAYED
51778.0,STARLINK-3615,PAYLOAD,2022-06-10 14:00:01,15.17608964,0.0001325,53.2176,350.9909,65.0506,355.8064,-0.038101,-0.00722419,0.0,0 STARLINK-3615,1 51778U 22017L   22161.58334491 -.00722419  00000-0 -38101-1 0  9990,2 51778  53.2176 350.9909 0001325  65.0506 355.8064 15.17608964  1304,6891.206,94.886,513.984,512.158,0.0
51778.0,STARLINK-3615,PAYLOAD,2022-06-10 22:00:00,15.17098916,0.0001312,53.2176,349.4742,69.4974,13.1819,-0.038683,-0.00722721,0.0,0 STARLINK-3615,1 51778U 22017L   22161.91667824 -.00722721  00000-0 -38683-1 0  9997,2 51778  53.2176 349.4742 0001312  69.4974  13.1819 15.17098916 17719,6892.751,94.918,515.52,513.711,0.0
51778.0,STARLINK-3615,PAYLOAD,2022-06-11 22:00:00,15.15567207,0.000145,53.2175,344.9263,67.1855,77.28699999999998,-0.040233,-0.00719622,0.0,0 STARLINK-3615,1 51778U 22017L   22162.91667824 -.00719622  00000-0 -40233-1 0  9998,2 51778  53.2175 344.9263 0001450  67.1855  77.2870 15.15567207  1300,6897.394,95.014,520.259,518.259,0.0
51778.0,STARLINK-3615,PAYLOAD,2022-06-12 06:00:02,15.15058989,0.0001377,53.2175,343.4111,75.3888,88.5191,-0.040988,-0.00722373,0.0,0 STARLINK-3615,1 51778U 22017L   22163.25002315 -.00722373  00000-0 -40988-1 0  9998,2 51778  53.2175 343.4111 0001377  75.3888  88.5191 15.15058989 17918,6898.936,95.046,521.751,519.851,0.0
51778.0,STARLINK-3615,PAYLOAD,2022-06-12 14:00:01,15.14548502,0.0001466,53.2176,341.8989,71.2428,111.3611,-0.041539,-0.00721602,0.0,0 STARLINK-3615,1 51778U 22017L   22163.58334491 -.00721602  00000-0 -41539-1 0  9994,2 51778  53.2176 341.8989 0001466  71.2428 111.3611 15.14548502  1300,6900.486999999999,95.078,523.363,521.34,0.0
51778.0,STARLINK-3615,PAYLOAD,2022-06-12 22:00:00,15.14036027,0.000146,53.2175,340.3892,73.0765,127.6738,-0.041864,-0.00717083,0.0,0 STARLINK-3615,1 51778U 22017L   22163.91667824 -.00717083  00000-0 -41864-1 0  9999,2 51778  53.2175 340.3892 0001460  73.0765 127.6738 15.14036027  1308,6902.044,95.11,524.9159999999998,522.901,0.0
51778.0,STARLINK-3615,PAYLOAD,2022-06-13 14:00:01,15.1301835,0.0001496,53.2175,337.369,68.0103,167.1943,-0.043339,-0.00721042,0.0,0 STARLINK-3615,1 51778U 22017L   22164.58334491 -.00721042  00000-0 -43339-1 0  9993,2 51778  53.2175 337.3690 0001496  68.0103 167.1943 15.13018350 18122,6905.138000000001,95.174,528.036,525.97,0.0
51778.0,STARLINK-3615,PAYLOAD,2022-06-13 22:00:00,15.12506026,0.0001413,53.2174,335.8627,75.7712,175.7413,-0.043673,-0.00716526,0.0,0 STARLINK-3615,1 51778U 22017L   22164.91667824 -.00716526  00000-0 -43673-1 0  9991,2 51778  53.2174 335.8627 0001413  75.7712 175.7413 15.12506026  1304,6906.696999999999,95.206,529.538,527.587,0.0
51778.0,STARLINK-3615,PAYLOAD,2022-06-14 14:00:01,15.11488464,0.0001398,53.2174,332.8496,76.0507,206.2395,-0.045232,-0.0072093999999999,0.0,0 STARLINK-3615,1 51778U 22017L   22165.58334491 -.00720940  00000-0 -45232-1 0  9994,2 51778  53.2174 332.8496 0001398  76.0507 206.2395 15.11488464 18270,6909.797,95.27,532.628,530.696,0.0
51778.0,STARLINK-3615,PAYLOAD,2022-06-14 22:00:00,15.10976741,0.0001329,53.2172,331.3468,75.7986,220.9608,-0.045631,-0.00717257,0.0,0 STARLINK-3615,1 51778U 22017L   22165.91667824 -.00717257  00000-0 -45631-1 0  9990,2 51778  53.2172 331.3468 0001329  75.7986 220.9608 15.10976741  1307,6911.357,95.303,534.14,532.303,0.0
51778.0,STARLINK-3615,PAYLOAD,2022-06-15 14:00:01,15.09958878,0.0001398,53.2174,328.3409,64.4536,259.4069,-0.047226,-0.00721351,0.0,0 STARLINK-3615,1 51778U 22017L   22166.58334491 -.00721351  00000-0 -47226-1 0  9997,2 51778  53.2174 328.3409 0001398  64.4536 259.4069 15.09958878  1309,6914.4630000000025,95.367,537.294,535.361,0.0
51778.0,STARLINK-3615,PAYLOAD,2022-06-15 22:00:00,15.09427144,0.0001276,53.2172,326.8422,79.9457,256.5496,-0.044383,-0.00671411,0.0,0 STARLINK-3615,1 51778U 22017L   22166.91667824 -.00671411  00000-0 -44383-1 0  9995,2 51778  53.2172 326.8422 0001276  79.9457 256.5496 15.09427144 18478,6916.0859999999975,95.4,538.8340000000002,537.069,0.0
51778.0,STARLINK-3615,PAYLOAD,2022-06-16 02:00:01,15.09065571,0.0001381,53.217,326.0923,64.9864,97.6117,-0.021162,-0.00324214,0.0,0 STARLINK-3615,1 51778U 22017L   22167.08334491 -.00324214  00000-0 -21162-1 0  9991,2 51778  53.2170 326.0923 0001381  64.9864  97.6117 15.09065571  1307,6917.191,95.423,540.011,538.101,0.0
51778.0,STARLINK-3615,PAYLOAD,2022-06-19 14:00:01,15.08848502,0.0001423,53.2122,310.3873,70.0309,34.5082,-0.0017093,-0.00027395,0.0,0 STARLINK-3615,1 51778U 22017L   22170.58334491 -.00027395  00000-0 -17093-2 0  9999,2 51778  53.2122 310.3873 0001423  70.0309  34.5082 15.08848502  1306,6917.854,95.437,540.7040000000002,538.735,0.0
51778.0,STARLINK-3615,PAYLOAD,2022-06-19 20:00:01,15.08834466,0.0001412,53.2121,309.2657,63.112,320.1343,0.00016403,2.323e-05,0.0,0 STARLINK-3615,1 51778U 22017L   22170.83334491  .00002323  00000-0  16403-3 0  9994,2 51778  53.2121 309.2657 0001412  63.1120 320.1343 15.08834466 19064,6917.897,95.438,540.739,538.785,0.0
51778.0,STARLINK-3615,PAYLOAD,2022-06-19 22:00:00,15.08841406,0.0001381,53.2121,308.8912,61.9139,54.2287,-0.00093755,-0.00015179,0.0,0 STARLINK-3615,1 51778U 22017L   22170.91667824 -.00015179  00000-0 -93755-3 0  9992,2 51778  53.2121 308.8912 0001381  61.9139  54.2287 15.08841406  1306,6917.876,95.437,540.696,538.786,0.0
51778.0,STARLINK-3615,PAYLOAD,2022-06-20 14:00:01,15.08847143,0.000157,53.2135,305.8979,70.6117,68.7185,-0.0010187999999999,-0.00016469,0.0,0 STARLINK-3615,1 51778U 22017L   22171.58334491 -.00016469  00000-0 -10188-2 0  9998,2 51778  53.2135 305.8979 0001570  70.6117  68.7185 15.08847143  1305,6917.859,95.437,540.81,538.637,0.0
51778.0,STARLINK-3615,PAYLOAD,2022-06-20 22:00:00,15.08854645,0.000155,53.213,304.4016,64.3856,86.5382,-0.00014704,-2.628e-05,0.0,0 STARLINK-3615,1 51778U 22017L   22171.91667824 -.00002628  00000-0 -14704-3 0  9995,2 51778  53.2130 304.4016 0001550  64.3856  86.5382 15.08854645 19227,6917.8359999999975,95.437,540.773,538.628,0.0
51778.0,STARLINK-3615,PAYLOAD,2022-06-21 14:00:01,15.08846764,0.0001455,53.2132,301.4083,66.9331,107.194,-0.0011499,-0.00018545,0.0,0 STARLINK-3615,1 51778U 22017L   22172.58334491 -.00018545  00000-0 -11499-2 0  9992,2 51778  53.2132 301.4083 0001455  66.9331 107.1940 15.08846764  1303,6917.86,95.437,540.731,538.7180000000002,0.0
51778.0,STARLINK-3615,PAYLOAD,2022-06-21 22:00:00,15.088469,0.0001403,53.213,299.9118,60.3877,125.3351,-0.0018271,-0.00029254,0.0,0 STARLINK-3615,1 51778U 22017L   22172.91667824 -.00029254  00000-0 -18271-2 0  9992,2 51778  53.2130 299.9118 0001403  60.3877 125.3351 15.08846900  1307,6917.859,95.437,540.695,538.754,0.0
51778.0,STARLINK-3615,PAYLOAD,2022-06-22 00:00:02,15.08847831,0.0001348,53.2131,299.5371,61.9881,216.6962,-0.0025291,-0.00040322,0.0,0 STARLINK-3615,1 51778U 22017L   22173.00002315 -.00040322  00000-0 -25291-2 0  9990,2 51778  53.2131 299.5371 0001348  61.9881 216.6962 15.08847831 19399,6917.856,95.437,540.654,538.789,0.0
51778.0,STARLINK-3615,PAYLOAD,2022-06-22 14:00:01,15.08841129,0.0001418,53.2134,296.9187,63.0373,145.857,-0.00063672,-0.00010407,0.0,0 STARLINK-3615,1 51778U 22017L   22173.58334491 -.00010407  00000-0 -63672-3 0  9993,2 51778  53.2134 296.9187 0001418  63.0373 145.8570 15.08841129  1309,6917.877,95.437,540.7230000000002,538.761,0.0
51778.0,STARLINK-3615,PAYLOAD,2022-06-22 16:00:00,15.088327599999998,0.0001472,53.2135,296.5449,61.1334,240.6612,0.00057211,8.827e-05,0.0,0 STARLINK-3615,1 51778U 22017L   22173.66667824  .00008827  00000-0  57211-3 0  9994,2 51778  53.2135 296.5449 0001472  61.1334 240.6612 15.08832760 19494,6917.903,95.438,540.786,538.749,0.0
51778.0,STARLINK-3615,PAYLOAD,2022-06-22 22:00:00,15.08866465,0.0001450999999999,53.2133,295.4221,59.7006,160.7878,-0.0032408,-0.00051534,0.0,0 STARLINK-3615,1 51778U 22017L   22173.91667824 -.00051534  00000-0 -32408-2 0  9997,2 51778  53.2133 295.4221 0001451  59.7006 160.7878 15.08866465  1300,6917.799,95.436,540.668,538.661,0.0
51778.0,STARLINK-3615,PAYLOAD,2022-06-23 14:00:01,15.08835113,0.0001565999999999,53.2138,292.4291,63.6842,179.9615,-0.00042222,-7e-05,0.0,0 STARLINK-3615,1 51778U 22017L   22174.58334491 -.00007000  00000-0 -42222-3 0  9997,2 51778  53.2138 292.4291 0001566  63.6842 179.9615 15.08835113 19630,6917.895,95.438,540.844,538.677,0.0
51778.0,STARLINK-3615,PAYLOAD,2022-06-23 22:00:00,15.08855181,0.0001527,53.2138,290.9324,61.2114,194.0197,-0.00094557,-0.00015311,0.0,0 STARLINK-3615,1 51778U 22017L   22174.91667824 -.00015311  00000-0 -94557-3 0  9995,2 51778  53.2138 290.9324 0001527  61.2114 194.0197 15.08855181  1308,6917.834,95.437,540.755,538.643,0.0
51778.0,STARLINK-3615,PAYLOAD,2022-06-24 06:00:02,15.08833932,0.0001416999999999,53.2141,289.4342,69.689,197.2109,0.0022182,0.00035185,0.0,0 STARLINK-3615,1 51778U 22017L   22175.25002315  .00035185  00000-0  22182-2 0  9994,2 51778  53.2141 289.4342 0001417  69.6890 197.2109 15.08833932 19730,6917.899,95.438,540.744,538.784,0.0
51778.0,STARLINK-3615,PAYLOAD,2022-06-24 14:00:01,15.08847453,0.000147,53.2142,287.9395,61.7916,216.6486,-0.0024357,-0.00038851,0.0,0 STARLINK-3615,1 51778U 22017L   22175.58334491 -.00038851  00000-0 -24357-2 0  9994,2 51778  53.2142 287.9395 0001470  61.7916 216.6486 15.08847453 19785,6917.858,95.437,540.74,538.706,0.0
51778.0,STARLINK-3615,PAYLOAD,2022-06-24 22:00:01,15.08845547,0.0001374,53.2141,286.4426,59.3164,230.7701,-0.0017061,-0.00027342,0.0,0 STARLINK-3615,1 51778U 22017L   22175.91668981 -.00027342  00000-0 -17061-2 0  9992,2 51778  53.2141 286.4426 0001374  59.3164 230.7701 15.08845547  1302,6917.863,95.437,540.679,538.778,0.0
